OBJECT_NAME,OBJECT_ID,EPOCH,MEAN_MOTION,ECCENTRICITY,INCLINATION,RA_OF_ASC_NODE,ARG_OF_PERICENTER,MEAN_ANOMALY,EPHEMERIS_TYPE,CLASSIFICATION_TYPE,NORAD_CAT_ID,ELEMENT_SET_NO,REV_AT_EPOCH,BSTAR,MEAN_MOTION_DOT,MEAN_MOTION_DDOT
STARLINK-37237,2026-114D,2026-06-18T11:32:45.940992,15.78073057,.000094,53.1574,195.9922,77.1130,282.9997,0,U,69185,999,497,.78929E-3,.138732E-2,0
STARLINK-37365,2026-114E,2026-06-18T16:06:49.196736,15.78057118,.000149,53.1570,195.0457,49.6154,310.4998,0,U,69186,999,500,.42101E-3,.73065E-3,0
STARLINK-37209,2026-114F,2026-06-18T14:34:30.749376,15.78065570,.0000848,53.1572,195.3572,63.2656,296.8452,0,U,69187,999,499,.87771E-3,.154585E-2,0
STARLINK-37359,2026-114G,2026-06-18T13:02:40.108128,15.78076255,.0001042,53.1570,195.6692,89.2234,270.8907,0,U,69188,999,498,.62321E-3,.109032E-2,0
STARLINK-37440,2026-114H,2026-06-18T18:00:02.000160,15.65946197,.0000931,53.1595,194.1976,82.3263,225.2343,0,U,69189,999,506,-.24672E-1,-.2267733E-1,0
STARLINK-37282,2026-114J,2026-06-18T08:19:46.519680,15.78107717,.0002352,53.1573,196.5747,99.7579,260.3708,0,U,69190,999,495,.94442E-3,.166956E-2,0
STARLINK-37422,2026-114K,2026-06-18T15:26:20.258592,15.80901372,.0001414,53.1565,194.8586,74.6679,285.4500,0,U,69191,999,500,.10327E-2,.208382E-2,0
STARLINK-37424,2026-114L,2026-06-18T18:00:02.000160,15.78080934,.0000877,53.1569,194.5657,90.3723,39.6029,0,U,69192,999,506,-.38681E-3,-.67378E-3,0
STARLINK-36666,2026-114M,2026-06-18T10:53:33.078912,15.80964326,.000147,53.1569,195.8104,62.5361,297.5811,0,U,69193,999,497,.15066E-2,.30883E-2,0
STARLINK-37355,2026-114N,2026-06-18T12:23:30.078240,15.81071029,.0000785,53.1564,195.4877,156.2110,203.8949,0,U,69194,999,498,.126E-2,.257896E-2,0
STARLINK-37166,2026-114P,2026-06-18T12:21:20.544768,15.80929975,.0001901,53.1565,195.4769,82.9833,277.1406,0,U,69195,999,498,.8073E-3,.162092E-2,0
STARLINK-36933,2026-114Q,2026-06-18T13:53:29.228064,15.80854266,.0001077,53.1568,195.1664,90.0228,270.0918,0,U,69196,999,499,.99757E-3,.200656E-2,0
STARLINK-37419,2026-114R,2026-06-18T12:20:15.609120,15.80907725,.0000977,53.1565,195.4718,96.2608,263.8526,0,U,69197,999,498,.7068E-3,.141331E-2,0
STARLINK-37321,2026-114S,2026-06-18T12:19:09.933024,15.80904936,.0001253,53.1568,195.4683,122.9441,237.1702,0,U,69198,999,498,.1048E-2,.211609E-2,0
STARLINK-37406,2026-114T,2026-06-18T18:00:02.000160,15.69686992,.0001124,53.1592,194.3568,86.5671,144.9281,0,U,69199,999,506,-.25034E-1,-.2628772E-1,0
STARLINK-37761,2026-114U,2026-06-18T18:00:02.000160,15.69580550,.0001142,53.1591,194.3503,87.2398,147.1732,0,U,69200,999,506,-.24924E-1,-.2608787E-1,0
STARLINK-37754,2026-114V,2026-06-18T18:00:02.000160,15.73541811,.0001052,53.1589,194.2945,95.4609,166.2002,0,U,69201,999,506,-.21326E-1,-.2639063E-1,0
STARLINK-37649,2026-114W,2026-06-18T12:14:51.648000,15.80870406,.0001205,53.1562,195.4475,107.8753,252.2401,0,U,69202,999,498,.15619E-2,.319203E-2,0
STARLINK-37604,2026-114X,2026-06-18T12:13:46.752096,15.80917854,.0000911,53.1562,195.4414,75.3516,284.7608,0,U,69203,999,498,.74172E-3,.148544E-2,0
STARLINK-37669,2026-114Y,2026-06-18T18:00:02.000160,15.72821552,.0000923,53.1588,194.2719,81.6380,190.6041,0,U,69204,999,506,-.21539E-1,-.2590724E-1,0
STARLINK-37691,2026-114Z,2026-06-18T15:39:24.329088,15.78078056,.0001161,53.1576,194.9171,70.6615,289.4532,0,U,69205,999,500,.84553E-3,.148878E-2,0
STARLINK-37671,2026-114AA,2026-06-18T12:26:28.533120,15.78064365,.0001029,53.1581,195.5014,89.9223,270.1916,0,U,69206,999,498,.49548E-3,.86269E-3,0
STARLINK-37647,2026-114AB,2026-06-18T13:42:38.980800,15.80923607,.0002152,53.1560,195.1140,143.3046,216.8124,0,U,69207,999,499,.73311E-3,.146828E-2,0
STARLINK-37562,2026-114AC,2026-06-18T15:31:49.571328,15.77984083,.0001949,53.1572,194.8822,42.1014,318.0157,0,U,69208,999,500,-.28407E-3,-.49555E-3,0
STARLINK-37682,2026-114AD,2026-06-18T12:07:16.999104,15.80875361,.0002075,53.1561,195.4110,216.4311,143.6571,0,U,69209,999,498,.11707E-2,.236844E-2,0
STARLINK-37402,2026-114AE,2026-06-18T15:08:17.185344,15.80948780,.0000912,53.1561,194.7724,142.8903,217.2183,0,U,69210,999,500,.11955E-2,.242855E-2,0
STARLINK-37613,2026-115A,2026-06-18T14:51:15.505344,15.49210895,.0000748,97.2843,186.7463,103.0945,257.0390,0,U,69211,999,488,.53536E-3,.29156E-3,0
STARLINK-37713,2026-115B,2026-06-18T18:00:02.000160,15.49183804,.0001987,97.2850,187.0076,94.1898,211.8166,0,U,69212,999,494,.37366E-3,.20281E-3,0
STARLINK-37716,2026-115C,2026-06-18T18:00:02.000160,15.48373079,.0002328,97.2847,187.0608,90.7831,345.2652,0,U,69213,999,494,-.59457E-1,-.2752639E-1,0
STARLINK-37620,2026-115D,2026-06-18T12:05:47.203584,15.49223800,.0000663,97.2837,186.5962,76.7916,283.3409,0,U,69214,999,486,.81447E-3,.4451E-3,0
