[ {"name": "STARLINK-37237", "line1": "1 69185U 26114D   26169.48108728  .00138732  00000+0  78929-3 0  9996", "line2": "2 69185  53.1574 195.9922 0000940  77.1130 282.9997 15.78073057  4974"}, {"name": "STARLINK-37365", "line1": "1 69186U 26114E   26169.67140274  .00073065  00000+0  42101-3 0  9990", "line2": "2 69186  53.1570 195.0457 0001490  49.6154 310.4998 15.78057118  5009"}, {"name": "STARLINK-37209", "line1": "1 69187U 26114F   26169.60730034  .00154585  00000+0  87771-3 0  9992", "line2": "2 69187  53.1572 195.3572 0000848  63.2656 296.8452 15.78065570  4998"}, {"name": "STARLINK-37359", "line1": "1 69188U 26114G   26169.54351977  .00109032  00000+0  62321-3 0  9992", "line2": "2 69188  53.1570 195.6692 0001042  89.2234 270.8907 15.78076255  4988"}, {"name": "STARLINK-37440", "line1": "1 69189U 26114H   26169.75002315 -.02267733  00000+0 -24672-1 0  9997", "line2": "2 69189  53.1595 194.1976 0000931  82.3263 225.2343 15.65946197  5062"}, {"name": "STARLINK-37282", "line1": "1 69190U 26114J   26169.34706620  .00166956  00000+0  94442-3 0  9999", "line2": "2 69190  53.1573 196.5747 0002352  99.7579 260.3708 15.78107717  4956"}, {"name": "STARLINK-37422", "line1": "1 69191U 26114K   26169.64329003  .00208382  00000+0  10327-2 0  9998", "line2": "2 69191  53.1565 194.8586 0001414  74.6679 285.4500 15.80901372  5008"}, {"name": "STARLINK-37424", "line1": "1 69192U 26114L   26169.75002315 -.00067378  00000+0 -38681-3 0  9999", "line2": "2 69192  53.1569 194.5657 0000877  90.3723  39.6029 15.78080934  5066"}, {"name": "STARLINK-36666", "line1": "1 69193U 26114M   26169.45385508  .00308830  00000+0  15066-2 0  9995", "line2": "2 69193  53.1569 195.8104 0001470  62.5361 297.5811 15.80964326  4979"}, {"name": "STARLINK-37355", "line1": "1 69194U 26114N   26169.51632035  .00257896  00000+0  12600-2 0  9999", "line2": "2 69194  53.1564 195.4877 0000785 156.2110 203.8949 15.81071029  4982"}, {"name": "STARLINK-37166", "line1": "1 69195U 26114P   26169.51482112  .00162092  00000+0  80730-3 0  9992", "line2": "2 69195  53.1565 195.4769 0001901  82.9833 277.1406 15.80929975  4985"}, {"name": "STARLINK-36933", "line1": "1 69196U 26114Q   26169.57881051  .00200656  00000+0  99757-3 0  9992", "line2": "2 69196  53.1568 195.1664 0001077  90.0228 270.0918 15.80854266  4993"}, {"name": "STARLINK-37419", "line1": "1 69197U 26114R   26169.51406955  .00141331  00000+0  70680-3 0  9991", "line2": "2 69197  53.1565 195.4718 0000977  96.2608 263.8526 15.80907725  4985"}, {"name": "STARLINK-37321", "line1": "1 69198U 26114S   26169.51330941  .00211609  00000+0  10480-2 0  9990", "line2": "2 69198  53.1568 195.4683 0001253 122.9441 237.1702 15.80904936  4981"}, {"name": "STARLINK-37406", "line1": "1 69199U 26114T   26169.75002315 -.02628772  00000+0 -25034-1 0  9995", "line2": "2 69199  53.1592 194.3568 0001124  86.5671 144.9281 15.69686992  5069"}, {"name": "STARLINK-37761", "line1": "1 69200U 26114U   26169.75002315 -.02608787  00000+0 -24924-1 0  9999", "line2": "2 69200  53.1591 194.3503 0001142  87.2398 147.1732 15.69580550  5063"}, {"name": "STARLINK-37754", "line1": "1 69201U 26114V   26169.75002315 -.02639063  00000+0 -21326-1 0  9994", "line2": "2 69201  53.1589 194.2945 0001052  95.4609 166.2002 15.73541811  5060"}, {"name": "STARLINK-37649", "line1": "1 69202U 26114W   26169.51032000  .00319203  00000+0  15619-2 0  9999", "line2": "2 69202  53.1562 195.4475 0001205 107.8753 252.2401 15.80870406  4983"}, {"name": "STARLINK-37604", "line1": "1 69203U 26114X   26169.50956889  .00148544  00000+0  74172-3 0  9997", "line2": "2 69203  53.1562 195.4414 0000911  75.3516 284.7608 15.80917854  4984"}, {"name": "STARLINK-37669", "line1": "1 69204U 26114Y   26169.75002315 -.02590724  00000+0 -21539-1 0  9993", "line2": "2 69204  53.1588 194.2719 0000923  81.6380 190.6041 15.72821552  5066"}, {"name": "STARLINK-37691", "line1": "1 69205U 26114Z   26169.65236492  .00148878  00000+0  84553-3 0  9990", "line2": "2 69205  53.1576 194.9171 0001161  70.6615 289.4532 15.78078056  5002"}, {"name": "STARLINK-37671", "line1": "1 69206U 26114AA  26169.51838580  .00086269  00000+0  49548-3 0  9992", "line2": "2 69206  53.1581 195.5014 0001029  89.9223 270.1916 15.78064365  4980"}, {"name": "STARLINK-37647", "line1": "1 69207U 26114AB  26169.57128450  .00146828  00000+0  73311-3 0  9990", "line2": "2 69207  53.1560 195.1140 0002152 143.3046 216.8124 15.80923607  4995"}, {"name": "STARLINK-37562", "line1": "1 69208U 26114AC  26169.64710152 -.00049555  00000+0 -28407-3 0  9992", "line2": "2 69208  53.1572 194.8822 0001949  42.1014 318.0157 15.77984083  5001"}, {"name": "STARLINK-37682", "line1": "1 69209U 26114AD  26169.50505786  .00236844  00000+0  11707-2 0  9994", "line2": "2 69209  53.1561 195.4110 0002075 216.4311 143.6571 15.80875361  4984"}, {"name": "STARLINK-37402", "line1": "1 69210U 26114AE  26169.63075446  .00242855  00000+0  11955-2 0  9999", "line2": "2 69210  53.1561 194.7724 0000912 142.8903 217.2183 15.80948780  5003"}, {"name": "STARLINK-37613", "line1": "1 69211U 26115A   26169.61892946  .00029156  00000+0  53536-3 0  9990", "line2": "2 69211  97.2843 186.7463 0000748 103.0945 257.0390 15.49210895  4880"}, {"name": "STARLINK-37713", "line1": "1 69212U 26115B   26169.75002315  .00020281  00000+0  37366-3 0  9992", "line2": "2 69212  97.2850 187.0076 0001987  94.1898 211.8166 15.49183804  4941"}, {"name": "STARLINK-37716", "line1": "1 69213U 26115C   26169.75002315 -.02752639  00000+0 -59457-1 0  9999", "line2": "2 69213  97.2847 187.0608 0002328  90.7831 345.2652 15.48373079  4944"}, {"name": "STARLINK-37620", "line1": "1 69214U 26115D   26169.50401856  .00044510  00000+0  81447-3 0  9990", "line2": "2 69214  97.2837 186.5962 0000663  76.7916 283.3409 15.49223800  4869"}]